COMMENT,ORIGINATOR,NORAD_CAT_ID,OBJECT_NAME,OBJECT_TYPE,CLASSIFICATION_TYPE,INTLDES,EPOCH,EPOCH_MICROSECONDS,MEAN_MOTION,ECCENTRICITY,INCLINATION,RA_OF_ASC_NODE,ARG_OF_PERICENTER,MEAN_ANOMALY,EPHEMERIS_TYPE,ELEMENT_SET_NO,REV_AT_EPOCH,BSTAR,MEAN_MOTION_DOT,MEAN_MOTION_DDOT,FILE,TLE_LINE0,TLE_LINE1,TLE_LINE2,OBJECT_ID,OBJECT_NUMBER,SEMIMAJOR_AXIS,PERIOD,APOGEE,PERIGEE,DECAYED
"GENERATED VIA SPACETRACK.ORG API","18 SPCS","55099","SPACEBEE-156","PAYLOAD","U","23001CU","2023-05-15 09:27:26","632800","15.19008311","0.0016967","97.4791","195.8167","116.8911","243.406","0","999","2012","0.00080087","0.00016781","0","3908639","0 SPACEBEE-156","1 55099U 23001CU  23135.39405825  .00016781  00000-0  80087-3 0  9993","2 55099  97.4791 195.8167 0016967 116.8911 243.4060 15.19008311 20123","2023-001CU","55099","6886.973","94.799","520.524","497.153","0"
"GENERATED VIA SPACETRACK.ORG API","18 SPCS","55099","SPACEBEE-156","PAYLOAD","U","23001CU","2023-05-15 09:27:26","632800","15.19008311","0.0016967","97.4791","195.8167","116.8911","243.406","0","999","2012","0.00080087","0.00016781","0","3908681","0 SPACEBEE-156","1 55099U 23001CU  23135.39405825  .00016781  00000-0  80087-3 0  9993","2 55099  97.4791 195.8167 0016967 116.8911 243.4060 15.19008311 20123","2023-001CU","55099","6886.973","94.799","520.524","497.153","0"
"GENERATED VIA SPACETRACK.ORG API","18 SPCS","55099","SPACEBEE-156","PAYLOAD","U","23001CU","2023-05-16 02:50:53","220192","15.19033369","0.0016972","97.4792","196.534","114.4915","245.8091","0","999","2023","0.00081306","0.00017051","0","3909472","0 SPACEBEE-156","1 55099U 23001CU  23136.11867153  .00017051  00000-0  81306-3 0  9996","2 55099  97.4792 196.5340 0016972 114.4915 245.8091 15.19033369 20232","2023-001CU","55099","6886.898","94.797","520.451","497.074","0"
"GENERATED VIA SPACETRACK.ORG API","18 SPCS","55099","SPACEBEE-156","PAYLOAD","U","23001CU","2023-05-16 21:49:10","176384","15.19056926","0.0016897","97.4791","197.3166","111.6619","248.6417","0","999","2035","0.00071083","0.00014903","0","3909725","0 SPACEBEE-156","1 55099U 23001CU  23136.90914556  .00014903  00000-0  71083-3 0  9997","2 55099  97.4791 197.3166 0016897 111.6619 248.6417 15.19056926 20352","2023-001CU","55099","6886.826","94.796","520.328","497.055","0"
"GENERATED VIA SPACETRACK.ORG API","18 SPCS","55099","SPACEBEE-156","PAYLOAD","U","23001CU","2023-05-16 21:49:10","176384","15.19056926","0.0016897","97.4791","197.3166","111.6619","248.6417","0","999","2035","0.00071083","0.00014903","0","3909742","0 SPACEBEE-156","1 55099U 23001CU  23136.90914556  .00014903  00000-0  71083-3 0  9997","2 55099  97.4791 197.3166 0016897 111.6619 248.6417 15.19056926 20352","2023-001CU","55099","6886.826","94.796","520.328","497.055","0"
"GENERATED VIA SPACETRACK.ORG API","18 SPCS","55099","SPACEBEE-156","PAYLOAD","U","23001CU","2023-05-17 21:31:59","709504","15.1908717","0.0017032","97.479","198.2948","108.7423","251.5661","0","999","2050","0.00064205","0.00013465","0","3910633","0 SPACEBEE-156","1 55099U 23001CU  23137.89721886  .00013465  00000-0  64205-3 0  9998","2 55099  97.4790 198.2948 0017032 108.7423 251.5661 15.19087170 20507","2023-001CU","55099","6886.735","94.794","520.330","496.871","0"
"GENERATED VIA SPACETRACK.ORG API","18 SPCS","55099","SPACEBEE-156","PAYLOAD","U","23001CU","2023-05-18 02:16:33","431232","15.19093107","0.0017018","97.479","198.4904","108.1621","252.1468","0","999","2053","0.00063754","0.00013372","0","3910897","0 SPACEBEE-156","1 55099U 23001CU  23138.09483138  .00013372  00000-0  63754-3 0  9991","2 55099  97.4790 198.4904 0017018 108.1621 252.1468 15.19093107 20531","2023-001CU","55099","6886.717","94.793","520.302","496.862","0"
"GENERATED VIA SPACETRACK.ORG API","18 SPCS","55099","SPACEBEE-156","PAYLOAD","U","23001CU","2023-05-18 03:51:24","654528","15.19094653","0.0017031","97.4789","198.5555","107.9094","252.3999","0","999","2054","0.00061422","0.0001288","0","3911221","0 SPACEBEE-156","1 55099U 23001CU  23138.16070202  .00012880  00000-0  61422-3 0  9996","2 55099  97.4789 198.5555 0017031 107.9094 252.3999 15.19094653 20547","2023-001CU","55099","6886.712","94.793","520.306","496.849","0"
"GENERATED VIA SPACETRACK.ORG API","18 SPCS","55099","SPACEBEE-156","PAYLOAD","U","23001CU","2023-05-18 14:55:23","78496","15.19106819","0.0017018","97.4787","199.012","106.5016","253.809","0","999","2061","0.00060532","0.00012696","0","3911388","0 SPACEBEE-156","1 55099U 23001CU  23138.62179489  .00012696  00000-0  60532-3 0  9990","2 55099  97.4787 199.0120 0017018 106.5016 253.8090 15.19106819 20617","2023-001CU","55099","6886.676","94.793","520.260","496.821","0"
"GENERATED VIA SPACETRACK.ORG API","18 SPCS","55099","SPACEBEE-156","PAYLOAD","U","23001CU","2023-05-19 03:34:12","298944","15.19121024","0.0016996","97.4784","199.5337","104.883","255.4288","0","999","2069","0.00059423","0.00012467","0","3911640","0 SPACEBEE-156","1 55099U 23001CU  23139.14875346  .00012467  00000-0  59423-3 0  9996","2 55099  97.4784 199.5337 0016996 104.8830 255.4288 15.19121024 20698","2023-001CU","55099","6886.633","94.792","520.202","496.793","0"
"GENERATED VIA SPACETRACK.ORG API","18 SPCS","55099","SPACEBEE-156","PAYLOAD","U","23001CU","2023-05-19 09:53:36","755808","15.19127539","0.0016986","97.4785","199.7947","104.0854","256.227","0","999","2073","0.0006031","0.00012657","0","3912278","0 SPACEBEE-156","1 55099U 23001CU  23139.41223097  .00012657  00000-0  60310-3 0  9994","2 55099  97.4785 199.7947 0016986 104.0854 256.2270 15.19127539 20737","2023-001CU","55099","6886.613","94.791","520.176","496.780","0"
"GENERATED VIA SPACETRACK.ORG API","18 SPCS","55099","SPACEBEE-156","PAYLOAD","U","23001CU","2023-05-20 03:16:58","407168","15.19154673","0.0016932","97.4781","200.512","101.7714","258.5421","0","999","2084","0.00087351","0.00018391","0","3912829","0 SPACEBEE-156","1 55099U 23001CU  23140.13678712  .00018391  00000-0  87351-3 0  9998","2 55099  97.4781 200.5120 0016932 101.7714 258.5421 15.19154673 20841","2023-001CU","55099","6886.531","94.790","520.056","496.736","0"
"GENERATED VIA SPACETRACK.ORG API","18 SPCS","55099","SPACEBEE-156","PAYLOAD","U","23001CU","2023-05-20 20:40:18","773760","15.19187192","0.0016848","97.4779","201.2294","99.5523","260.7616","0","999","2095","0.0010801","0.00022791","0","3913175","0 SPACEBEE-156","1 55099U 23001CU  23140.86132840  .00022791  00000-0  10801-2 0  9999","2 55099  97.4779 201.2294 0016848  99.5523 260.7616 15.19187192 20951","2023-001CU","55099","6886.433","94.788","519.900","496.696","0"
"GENERATED VIA SPACETRACK.ORG API","18 SPCS","55099","SPACEBEE-156","PAYLOAD","U","23001CU","2023-05-21 14:03:37","842624","15.19215171","0.0016783","97.4778","201.947","97.208","263.1064","0","999","2106","0.0008993","0.00018969","0","3913738","0 SPACEBEE-156","1 55099U 23001CU  23141.58585466  .00018969  00000-0  89930-3 0  9997","2 55099  97.4778 201.9470 0016783  97.2080 263.1064 15.19215171 21060","2023-001CU","55099","6886.348","94.786","519.771","496.656","0"
"GENERATED VIA SPACETRACK.ORG API","18 SPCS","55099","SPACEBEE-156","PAYLOAD","U","23001CU","2023-05-21 15:38:28","599360","15.1921819","0.0016779","97.4778","202.0122","97.0158","263.2986","0","999","2107","0.00090057","0.00018998","0","3914041","0 SPACEBEE-156","1 55099U 23001CU  23141.65171990  .00018998  00000-0  90057-3 0  9992","2 55099  97.4778 202.0122 0016779  97.0158 263.2986 15.19218190 21074","2023-001CU","55099","6886.339","94.786","519.759","496.650","0"
"GENERATED VIA SPACETRACK.ORG API","18 SPCS","55099","SPACEBEE-156","PAYLOAD","U","23001CU","2023-05-21 17:13:19","336224","15.19222503","0.0016772","97.4778","202.0774","96.7889","263.5254","0","999","2108","0.00095389","0.00020132","0","3914061","0 SPACEBEE-156","1 55099U 23001CU  23141.71758491  .00020132  00000-0  95389-3 0  9992","2 55099  97.4778 202.0774 0016772  96.7889 263.5254 15.19222503 21082","2023-001CU","55099","6886.326","94.785","519.741","496.641","0"
"GENERATED VIA SPACETRACK.ORG API","18 SPCS","55099","SPACEBEE-156","PAYLOAD","U","23001CU","2023-05-22 02:42:23","661504","15.19237877","0.0016788","97.4778","202.4688","95.5246","264.7904","0","999","2114","0.00093065","0.00019648","0","3914693","0 SPACEBEE-156","1 55099U 23001CU  23142.11277386  .00019648  00000-0  93065-3 0  9995","2 55099  97.4778 202.4688 0016788  95.5246 264.7904 15.19237877 21143","2023-001CU","55099","6886.280","94.784","519.705","496.584","0"
"GENERATED VIA SPACETRACK.ORG API","18 SPCS","55099","SPACEBEE-156","PAYLOAD","U","23001CU","2023-05-22 15:21:08","895456","15.19258004","0.0016793","97.4779","202.9905","93.7564","266.5591","0","999","2122","0.00091949","0.00019422","0","3914964","0 SPACEBEE-156","1 55099U 23001CU  23142.63968629  .00019422  00000-0  91949-3 0  9998","2 55099  97.4779 202.9905 0016793  93.7564 266.5591 15.19258004 21226","2023-001CU","55099","6886.219","94.783","519.648","496.520","0"
"GENERATED VIA SPACETRACK.ORG API","18 SPCS","55099","SPACEBEE-156","PAYLOAD","U","23001CU","2023-05-23 02:25:02","993376","15.19274799","0.0016815","97.4779","203.4471","92.3329","267.9831","0","999","2129","0.00088956","0.00018795","0","3915235","0 SPACEBEE-156","1 55099U 23001CU  23143.10072909  .00018795  00000-0  88956-3 0  9994","2 55099  97.4779 203.4471 0016815  92.3329 267.9831 15.19274799 21297","2023-001CU","55099","6886.168","94.782","519.612","496.454","0"
"GENERATED VIA SPACETRACK.ORG API","18 SPCS","55099","SPACEBEE-156","PAYLOAD","U","23001CU","2023-05-23 21:23:09","52800","15.19298752","0.0016822","97.4777","204.2298","89.9574","270.3588","0","999","2141","0.00074189","0.00015668","0","3915766","0 SPACEBEE-156","1 55099U 23001CU  23143.89107700  .00015668  00000-0  74189-3 0  9997","2 55099  97.4777 204.2298 0016822  89.9574 270.3588 15.19298752 21419","2023-001CU","55099","6886.096","94.781","519.544","496.377","0"
